{
  "type": "FeatureCollection",
  "features": [
    {
      "type": "Feature",
      "properties": {
        "norad_id": 30859,
        "name": "FENGYUN 1C DEB",
        "group": "fengyun-1c-debris",
        "lat": -73.48840361703787,
        "lon": 63.7029556130539,
        "alt_km": 748.3108076531589,
        "timestamp": "2025-12-07T20:38:14.342908+00:00",
        "meta_object_name": "FENGYUN 1C DEB",
        "meta_object_id": "1999-025AWV",
        "meta_epoch": "2025-12-07T06:04:16.810176",
        "meta_mean_motion": 14.48899855,
        "meta_eccentricity": 0.00314253,
        "meta_inclination": 98.9211,
        "meta_ra_of_asc_node": 31.0642,
        "meta_arg_of_pericenter": 48.0026,
        "meta_mean_anomaly": 312.3834,
        "meta_ephemeris_type": 0,
        "meta_classification_type": "U",
        "meta_norad_cat_id": 30859,
        "meta_element_set_no": 999,
        "meta_rev_at_epoch": 96955,
        "meta_bstar": 0.0042736791,
        "meta_mean_motion_dot": 0.00016262,
        "meta_mean_motion_ddot": 0,
        "tle_line1": "1 30859U 99025AWV 25341.25297234  .00016262  00000+0  42737-2 0  9990",
        "tle_line2": "2 30859  98.9211  31.0642 0031425  48.0026 312.3834 14.48899855969557"
      },
      "geometry": {
        "type": "Point",
        "coordinates": [
          63.7029556130539,
          -73.48840361703787
        ]
      }
    },
    {
      "type": "Feature",
      "properties": {
        "norad_id": 30860,
        "name": "FENGYUN 1C DEB",
        "group": "fengyun-1c-debris",
        "lat": -11.40875101675663,
        "lon": -126.56845997286347,
        "alt_km": 782.8667338120695,
        "timestamp": "2025-12-07T20:38:14.342917+00:00",
        "meta_object_name": "FENGYUN 1C DEB",
        "meta_object_id": "1999-025AWW",
        "meta_epoch": "2025-12-07T04:34:44.734656",
        "meta_mean_motion": 14.25433187,
        "meta_eccentricity": 0.00400757,
        "meta_inclination": 98.9051,
        "meta_ra_of_asc_node": 54.5655,
        "meta_arg_of_pericenter": 202.741,
        "meta_mean_anomaly": 157.1995,
        "meta_ephemeris_type": 0,
        "meta_classification_type": "U",
        "meta_norad_cat_id": 30860,
        "meta_element_set_no": 999,
        "meta_rev_at_epoch": 96437,
        "meta_bstar": 0.002712326,
        "meta_mean_motion_dot": 6.415e-05,
        "meta_mean_motion_ddot": 0,
        "tle_line1": "1 30860U 99025AWW 25341.19079554  .00006415  00000+0  27123-2 0  9999",
        "tle_line2": "2 30860  98.9051  54.5655 0040075 202.7410 157.1995 14.25433187964377"
      },
      "geometry": {
        "type": "Point",
        "coordinates": [
          -126.56845997286347,
          -11.40875101675663
        ]
      }
    },
    {
      "type": "Feature",
      "properties": {
        "norad_id": 30862,
        "name": "FENGYUN 1C DEB",
        "group": "fengyun-1c-debris",
        "lat": 43.584196929521866,
        "lon": 63.73862348164765,
        "alt_km": 770.9178771621982,
        "timestamp": "2025-12-07T20:38:14.342927+00:00",
        "meta_object_name": "FENGYUN 1C DEB",
        "meta_object_id": "1999-025AWY",
        "meta_epoch": "2025-12-07T05:34:50.320704",
        "meta_mean_motion": 14.42878121,
        "meta_eccentricity": 0.0053631,
        "meta_inclination": 98.9596,
        "meta_ra_of_asc_node": 71.7154,
        "meta_arg_of_pericenter": 178.6275,
        "meta_mean_anomaly": 209.2623,
        "meta_ephemeris_type": 0,
        "meta_classification_type": "U",
        "meta_norad_cat_id": 30862,
        "meta_element_set_no": 999,
        "meta_rev_at_epoch": 96640,
        "meta_bstar": 0.0055172321,
        "meta_mean_motion_dot": 0.00018752,
        "meta_mean_motion_ddot": 0,
        "tle_line1": "1 30862U 99025AWY 25341.23252686  .00018752  00000+0  55172-2 0  9997",
        "tle_line2": "2 30862  98.9596  71.7154 0053631 178.6275 209.2623 14.42878121966403"
      },
      "geometry": {
        "type": "Point",
        "coordinates": [
          63.73862348164765,
          43.584196929521866
        ]
      }
    },
    {
      "type": "Feature",
      "properties": {
        "norad_id": 30863,
        "name": "FENGYUN 1C DEB",
        "group": "fengyun-1c-debris",
        "lat": -80.81132521433322,
        "lon": -89.15684821725453,
        "alt_km": 825.4463849447866,
        "timestamp": "2025-12-07T20:38:14.342937+00:00",
        "meta_object_name": "FENGYUN 1C DEB",
        "meta_object_id": "1999-025AWZ",
        "meta_epoch": "2025-12-05T08:13:20.266752",
        "meta_mean_motion": 12.40462161,
        "meta_eccentricity": 0.08784359,
        "meta_inclination": 99.1209,
        "meta_ra_of_asc_node": 172.1545,
        "meta_arg_of_pericenter": 265.9824,
        "meta_mean_anomaly": 285.4303,
        "meta_ephemeris_type": 0,
        "meta_classification_type": "U",
        "meta_norad_cat_id": 30863,
        "meta_element_set_no": 999,
        "meta_rev_at_epoch": 59648,
        "meta_bstar": 0.0063870204,
        "meta_mean_motion_dot": 3.332e-05,
        "meta_mean_motion_ddot": 0,
        "tle_line1": "1 30863U 99025AWZ 25339.34259568  .00003332  00000+0  63870-2 0  9995",
        "tle_line2": "2 30863  99.1209 172.1545 0878435 265.9824 285.4303 12.40462161596482"
      },
      "geometry": {
        "type": "Point",
        "coordinates": [
          -89.15684821725453,
          -80.81132521433322
        ]
      }
    },
    {
      "type": "Feature",
      "properties": {
        "norad_id": 30867,
        "name": "FENGYUN 1C DEB",
        "group": "fengyun-1c-debris",
        "lat": -32.57201649788515,
        "lon": 64.09569880345425,
        "alt_km": 840.7639897089111,
        "timestamp": "2025-12-07T20:38:14.342947+00:00",
        "meta_object_name": "FENGYUN 1C DEB",
        "meta_object_id": "1999-025AXD",
        "meta_epoch": "2025-12-07T05:13:23.337408",
        "meta_mean_motion": 14.27893291,
        "meta_eccentricity": 0.00546599,
        "meta_inclination": 97.8763,
        "meta_ra_of_asc_node": 248.5898,
        "meta_arg_of_pericenter": 11.1933,
        "meta_mean_anomaly": 142.3102,
        "meta_ephemeris_type": 0,
        "meta_classification_type": "U",
        "meta_norad_cat_id": 30867,
        "meta_element_set_no": 999,
        "meta_rev_at_epoch": 96458,
        "meta_bstar": 0.0039249111,
        "meta_mean_motion_dot": 9.847e-05,
        "meta_mean_motion_ddot": 0,
        "tle_line1": "1 30867U 99025AXD 25341.21763122  .00009847  00000+0  39249-2 0  9994",
        "tle_line2": "2 30867  97.8763 248.5898 0054659  11.1933 142.3102 14.27893291964588"
      },
      "geometry": {
        "type": "Point",
        "coordinates": [
          64.09569880345425,
          -32.57201649788515
        ]
      }
    },
    {
      "type": "Feature",
      "properties": {
        "norad_id": 30868,
        "name": "FENGYUN 1C DEB",
        "group": "fengyun-1c-debris",
        "lat": -14.626586772964671,
        "lon": -137.54599321525927,
        "alt_km": 905.2943145587969,
        "timestamp": "2025-12-07T20:38:14.342957+00:00",
        "meta_object_name": "FENGYUN 1C DEB",
        "meta_object_id": "1999-025AXE",
        "meta_epoch": "2025-12-06T11:17:15.254016",
        "meta_mean_motion": 14.11115171,
        "meta_eccentricity": 0.01349036,
        "meta_inclination": 98.2638,
        "meta_ra_of_asc_node": 219.0009,
        "meta_arg_of_pericenter": 231.1021,
        "meta_mean_anomaly": 257.8038,
        "meta_ephemeris_type": 0,
        "meta_classification_type": "U",
        "meta_norad_cat_id": 30868,
        "meta_element_set_no": 999,
        "meta_rev_at_epoch": 96622,
        "meta_bstar": 0.00029074397,
        "meta_mean_motion_dot": 5.3e-06,
        "meta_mean_motion_ddot": 0,
        "tle_line1": "1 30868U 99025AXE 25340.47031544  .00000530  00000+0  29074-3 0  9994",
        "tle_line2": "2 30868  98.2638 219.0009 0134903 231.1021 257.8038 14.11115171966225"
      },
      "geometry": {
        "type": "Point",
        "coordinates": [
          -137.54599321525927,
          -14.626586772964671
        ]
      }
    },
    {
      "type": "Feature",
      "properties": {
        "norad_id": 30872,
        "name": "FENGYUN 1C DEB",
        "group": "fengyun-1c-debris",
        "lat": 15.122675573138446,
        "lon": 31.37024048717625,
        "alt_km": 735.3418363858254,
        "timestamp": "2025-12-07T20:38:14.342966+00:00",
        "meta_object_name": "FENGYUN 1C DEB",
        "meta_object_id": "1999-025AXJ",
        "meta_epoch": "2025-12-07T02:21:15.712992",
        "meta_mean_motion": 14.39380842,
        "meta_eccentricity": 0.00410455,
        "meta_inclination": 99.1932,
        "meta_ra_of_asc_node": 33.0623,
        "meta_arg_of_pericenter": 45.4863,
        "meta_mean_anomaly": 344.9713,
        "meta_ephemeris_type": 0,
        "meta_classification_type": "U",
        "meta_norad_cat_id": 30872,
        "meta_element_set_no": 999,
        "meta_rev_at_epoch": 97655,
        "meta_bstar": 0.0014166742,
        "meta_mean_motion_dot": 4.403e-05,
        "meta_mean_motion_ddot": 0,
        "tle_line1": "1 30872U 99025AXJ 25341.09809853  .00004403  00000+0  14167-2 0  9993",
        "tle_line2": "2 30872  99.1932  33.0623 0041045  45.4863 344.9713 14.39380842976551"
      },
      "geometry": {
        "type": "Point",
        "coordinates": [
          31.37024048717625,
          15.122675573138446
        ]
      }
    }
  ]
}